{"type": "FeatureCollection", "features": [ {"type": "Feature", "properties": {"norad_id": 54031, "name": "COSMOS 2559 (707K)", "group": "gnss", "lat": 62.4018811264723, "lon": 74.03804805671852, "alt_km": 19123.613761418488, "timestamp": "2025-12-27T07:26:25.465921+00:00", "meta": {"OBJECT_NAME": "COSMOS 2559 (707K)", "OBJECT_ID": "2022-130A", "EPOCH": "2025-12-26T05:45:52.034112", "MEAN_MOTION": 2.13101192, "ECCENTRICITY": 0.0011465, "INCLINATION": 64.3745, "RA_OF_ASC_NODE": 320.6663, "ARG_OF_PERICENTER": 191.5639, "MEAN_ANOMALY": 168.4144, "EPHEMERIS_TYPE": 0, "CLASSIFICATION_TYPE": "U", "NORAD_CAT_ID": 54031, "ELEMENT_SET_NO": 999, "REV_AT_EPOCH": 2500, "BSTAR": 0, "MEAN_MOTION_DOT": -3.6e-07, "MEAN_MOTION_DDOT": 0}, "tle": {"line1": "1 54031U 22130A   25360.24018558 -.00000036  00000+0  00000+0 0  9998", "line2": "2 54031  64.3745 320.6663 0011465 191.5639 168.4144  2.13101192 25006"}}, "geometry": {"type": "Point", "coordinates": [74.03804805671852, 62.4018811264723]}}, {"type": "Feature", "properties": {"norad_id": 54377, "name": "COSMOS 2564 (761)", "group": "gnss", "lat": -35.858119295402496, "lon": 38.37943688095684, "alt_km": 19113.6638775726, "timestamp": "2025-12-27T07:26:25.465938+00:00", "meta": {"OBJECT_NAME": "COSMOS 2564 (761)", "OBJECT_ID": "2022-161A", "EPOCH": "2025-12-26T13:17:06.645696", "MEAN_MOTION": 2.13101966, "ECCENTRICITY": 0.0008542, "INCLINATION": 64.7391, "RA_OF_ASC_NODE": 198.4399, "ARG_OF_PERICENTER": 203.4859, "MEAN_ANOMALY": 156.5301, "EPHEMERIS_TYPE": 0, "CLASSIFICATION_TYPE": "U", "NORAD_CAT_ID": 54377, "ELEMENT_SET_NO": 999, "REV_AT_EPOCH": 2395, "BSTAR": 0, "MEAN_MOTION_DOT": 1.15e-06, "MEAN_MOTION_DDOT": 0}, "tle": {"line1": "1 54377U 22161A   25360.55354914  .00000115  00000+0  00000+0 0  9995", "line2": "2 54377  64.7391 198.4399 0008542 203.4859 156.5301  2.13101966 23950"}}, "geometry": {"type": "Point", "coordinates": [38.37943688095684, -35.858119295402496]}}, {"type": "Feature", "properties": {"norad_id": 55268, "name": "GPS BIII-6  (PRN 28)", "group": "gnss", "lat": -54.525777258580106, "lon": 53.57731213114842, "alt_km": 20189.256870782654, "timestamp": "2025-12-27T07:26:25.465955+00:00", "meta": {"OBJECT_NAME": "GPS BIII-6  (PRN 28)", "OBJECT_ID": "2023-009A", "EPOCH": "2025-12-22T10:59:58.065216", "MEAN_MOTION": 2.00554901, "ECCENTRICITY": 0.00037047, "INCLINATION": 55.1065, "RA_OF_ASC_NODE": 155.4638, "ARG_OF_PERICENTER": 355.7912, "MEAN_ANOMALY": 4.4255, "EPHEMERIS_TYPE": 0, "CLASSIFICATION_TYPE": "U", "NORAD_CAT_ID": 55268, "ELEMENT_SET_NO": 999, "REV_AT_EPOCH": 2170, "BSTAR": 0, "MEAN_MOTION_DOT": 7.4e-07, "MEAN_MOTION_DDOT": 0}, "tle": {"line1": "1 55268U 23009A   25356.45831094  .00000074  00000+0  00000+0 0  9994", "line2": "2 55268  55.1065 155.4638 0003704 355.7912   4.4255  2.00554901 21704"}}, "geometry": {"type": "Point", "coordinates": [53.57731213114842, -54.525777258580106]}}, {"type": "Feature", "properties": {"norad_id": 56564, "name": "BEIDOU-3 G4 (C62)", "group": "gnss", "lat": 0.708855982506869, "lon": 7.678025157993076, "alt_km": 35796.53257949045, "timestamp": "2025-12-27T07:26:25.465973+00:00", "meta": {"OBJECT_NAME": "BEIDOU-3 G4 (C62)", "OBJECT_ID": "2023-066A", "EPOCH": "2025-12-26T22:21:21.485952", "MEAN_MOTION": 1.00270564, "ECCENTRICITY": 0.00024962, "INCLINATION": 0.7854, "RA_OF_ASC_NODE": 303.1583, "ARG_OF_PERICENTER": 231.0428, "MEAN_ANOMALY": 56.8567, "EPHEMERIS_TYPE": 0, "CLASSIFICATION_TYPE": "U", "NORAD_CAT_ID": 56564, "ELEMENT_SET_NO": 999, "REV_AT_EPOCH": 966, "BSTAR": 0, "MEAN_MOTION_DOT": -8.9e-07, "MEAN_MOTION_DDOT": 0}, "tle": {"line1": "1 56564U 23066A   25360.93149868 -.00000089  00000+0  00000+0 0  9993", "line2": "2 56564   0.7854 303.1583 0002496 231.0428  56.8567  1.00270564  9669"}}, "geometry": {"type": "Point", "coordinates": [7.678025157993076, 0.708855982506869]}}, {"type": "Feature", "properties": {"norad_id": 56759, "name": "NVS-01 (IRNSS-1J)", "group": "gnss", "lat": 2.5702345770482946, "lon": -22.71358335223942, "alt_km": 35772.23049299653, "timestamp": "2025-12-27T07:26:25.465996+00:00", "meta": {"OBJECT_NAME": "NVS-01 (IRNSS-1J)", "OBJECT_ID": "2023-076A", "EPOCH": "2025-12-26T22:12:35.823168", "MEAN_MOTION": 1.00269875, "ECCENTRICITY": 0.00089907, "INCLINATION": 2.5851, "RA_OF_ASC_NODE": 251.0972, "ARG_OF_PERICENTER": 17.8566, "MEAN_ANOMALY": 289.4164, "EPHEMERIS_TYPE": 0, "CLASSIFICATION_TYPE": "U", "NORAD_CAT_ID": 56759, "ELEMENT_SET_NO": 999, "REV_AT_EPOCH": 938, "BSTAR": 0, "MEAN_MOTION_DOT": -3.12e-06, "MEAN_MOTION_DDOT": 0}, "tle": {"line1": "1 56759U 23076A   25360.92541462 -.00000312  00000+0  00000+0 0  9994", "line2": "2 56759   2.5851 251.0972 0008990  17.8566 289.4164  1.00269875  9382"}}, "geometry": {"type": "Point", "coordinates": [-22.71358335223942, 2.5702345770482946]}}, {"type": "Feature", "properties": {"norad_id": 57517, "name": "COSMOS 2569 (703K)", "group": "gnss", "lat": -26.933990456308837, "lon": -88.00183230952278, "alt_km": 19127.300246802795, "timestamp": "2025-12-27T07:26:25.466014+00:00", "meta": {"OBJECT_NAME": "COSMOS 2569 (703K)", "OBJECT_ID": "2023-114A", "EPOCH": "2025-12-26T02:20:34.905408", "MEAN_MOTION": 2.13103952, "ECCENTRICITY": 0.00110098, "INCLINATION": 65.2009, "RA_OF_ASC_NODE": 78.4621, "ARG_OF_PERICENTER": 287.2132, "MEAN_ANOMALY": 72.7147, "EPHEMERIS_TYPE": 0, "CLASSIFICATION_TYPE": "U", "NORAD_CAT_ID": 57517, "ELEMENT_SET_NO": 999, "REV_AT_EPOCH": 1857, "BSTAR": 0, "MEAN_MOTION_DOT": -5e-08, "MEAN_MOTION_DDOT": 0}, "tle": {"line1": "1 57517U 23114A   25360.09762622 -.00000005  00000+0  00000+0 0  9990", "line2": "2 57517  65.2009  78.4621 0011009 287.2132  72.7147  2.13103952 18578"}}, "geometry": {"type": "Point", "coordinates": [-88.00183230952278, -26.933990456308837]}}, {"type": "Feature", "properties": {"norad_id": 58654, "name": "BEIDOU-3 M28 (C50)", "group": "gnss", "lat": -51.19684650990428, "lon": -53.53778294496535, "alt_km": 21526.373548459618, "timestamp": "2025-12-27T07:26:25.466031+00:00", "meta": {"OBJECT_NAME": "BEIDOU-3 M28 (C50)", "OBJECT_ID": "2023-207A", "EPOCH": "2025-12-26T09:34:30.666720", "MEAN_MOTION": 1.86229622, "ECCENTRICITY": 0.0002968, "INCLINATION": 55.596, "RA_OF_ASC_NODE": 68.1388, "ARG_OF_PERICENTER": 276.5456, "MEAN_ANOMALY": 83.472, "EPHEMERIS_TYPE": 0, "CLASSIFICATION_TYPE": "U", "NORAD_CAT_ID": 58654, "ELEMENT_SET_NO": 999, "REV_AT_EPOCH": 1362, "BSTAR": 0, "MEAN_MOTION_DOT": -3.3e-07, "MEAN_MOTION_DDOT": 0}, "tle": {"line1": "1 58654U 23207A   25360.39896605 -.00000033  00000+0  00000+0 0  9999", "line2": "2 58654  55.5960  68.1388 0002968 276.5456  83.4720  1.86229622 13628"}}, "geometry": {"type": "Point", "coordinates": [-53.53778294496535, -51.19684650990428]}}, {"type": "Feature", "properties": {"norad_id": 58655, "name": "BEIDOU-3 M26 (C48)", "group": "gnss", "lat": 21.6513613606495, "lon": 83.87342670451281, "alt_km": 21532.24632847137, "timestamp": "2025-12-27T07:26:25.466049+00:00", "meta": {"OBJECT_NAME": "BEIDOU-3 M26 (C48)", "OBJECT_ID": "2023-207B", "EPOCH": "2025-12-26T17:36:09.851904", "MEAN_MOTION": 1.86231163, "ECCENTRICITY": 0.00042763, "INCLINATION": 55.5984, "RA_OF_ASC_NODE": 68.1137, "ARG_OF_PERICENTER": 261.988, "MEAN_ANOMALY": 98.0139, "EPHEMERIS_TYPE": 0, "CLASSIFICATION_TYPE": "U", "NORAD_CAT_ID": 58655, "ELEMENT_SET_NO": 999, "REV_AT_EPOCH": 1361, "BSTAR": 0, "MEAN_MOTION_DOT": -3.4e-07, "MEAN_MOTION_DDOT": 0}, "tle": {"line1": "1 58655U 23207B   25360.73344736 -.00000034  00000+0  00000+0 0  9992", "line2": "2 58655  55.5984  68.1137 0004276 261.9880  98.0139  1.86231163 13618"}}, "geometry": {"type": "Point", "coordinates": [83.87342670451281, 21.6513613606495]}}, {"type": "Feature", "properties": {"norad_id": 59598, "name": "GSAT0225 (GALILEO 29)", "group": "gnss", "lat": -32.028525902606454, "lon": -48.16346893152647, "alt_km": 23220.46427799798, "timestamp": "2025-12-27T07:26:25.466066+00:00", "meta": {"OBJECT_NAME": "GSAT0225 (GALILEO 29)", "OBJECT_ID": "2024-079A", "EPOCH": "2025-12-25T18:42:53.226144", "MEAN_MOTION": 1.70474814, "ECCENTRICITY": 0.00021774, "INCLINATION": 55.0084, "RA_OF_ASC_NODE": 105.9312, "ARG_OF_PERICENTER": 191.4017, "MEAN_ANOMALY": 169.7242, "EPHEMERIS_TYPE": 0, "CLASSIFICATION_TYPE": "U", "NORAD_CAT_ID": 59598, "ELEMENT_SET_NO": 999, "REV_AT_EPOCH": 1036, "BSTAR": 0, "MEAN_MOTION_DOT": 1.7e-07, "MEAN_MOTION_DDOT": 0}, "tle": {"line1": "1 59598U 24079A   25359.77978271  .00000017  00000+0  00000+0 0  9996", "line2": "2 59598  55.0084 105.9312 0002177 191.4017 169.7242  1.70474814 10368"}}, "geometry": {"type": "Point", "coordinates": [-48.16346893152647, -32.028525902606454]}}, {"type": "Feature", "properties": {"norad_id": 59600, "name": "GSAT0227 (GALILEO 30)", "group": "gnss", "lat": 51.29250042261174, "lon": -134.92401273667062, "alt_km": 23207.79138971075, "timestamp": "2025-12-27T07:26:25.466084+00:00", "meta": {"OBJECT_NAME": "GSAT0227 (GALILEO 30)", "OBJECT_ID": "2024-079C", "EPOCH": "2025-12-21T20:31:35.455872", "MEAN_MOTION": 1.70474868, "ECCENTRICITY": 0.00028355, "INCLINATION": 55.0019, "RA_OF_ASC_NODE": 106.0394, "ARG_OF_PERICENTER": 117.3615, "MEAN_ANOMALY": 242.6419, "EPHEMERIS_TYPE": 0, "CLASSIFICATION_TYPE": "U", "NORAD_CAT_ID": 59600, "ELEMENT_SET_NO": 999, "REV_AT_EPOCH": 1034, "BSTAR": 0, "MEAN_MOTION_DOT": 4e-08, "MEAN_MOTION_DDOT": 0}, "tle": {"line1": "1 59600U 24079C   25355.85527148  .00000004  00000+0  00000+0 0  9994", "line2": "2 59600  55.0019 106.0394 0002835 117.3615 242.6419  1.70474868 10348"}}, "geometry": {"type": "Point", "coordinates": [-134.92401273667062, 51.29250042261174]}}]}